[{"OBJECT_NAME":"OSCAR 7 (AO-7)","OBJECT_ID":"1974-089B","EPOCH":"2026-04-25T21:03:38.761344","MEAN_MOTION":12.53697167,"ECCENTRICITY":0.0011961,"INCLINATION":101.9931,"RA_OF_ASC_NODE":128.5744,"ARG_OF_PERICENTER":229.7726,"MEAN_ANOMALY":201.1613,"EPHEMERIS_TYPE":0,"CLASSIFICATION_TYPE":"U","NORAD_CAT_ID":7530,"ELEMENT_SET_NO":999,"REV_AT_EPOCH":35396,"BSTAR":9.6314e-5,"MEAN_MOTION_DOT":-3.1e-7,"MEAN_MOTION_DDOT":0},{"OBJECT_NAME":"PHASE 3B (AO-10)","OBJECT_ID":"1983-058B","EPOCH":"2026-04-25T10:32:45.462048","MEAN_MOTION":2.05871318,"ECCENTRICITY":0.6029562,"INCLINATION":25.8952,"RA_OF_ASC_NODE":228.3572,"ARG_OF_PERICENTER":101.119,"MEAN_ANOMALY":328.2592,"EPHEMERIS_TYPE":0,"CLASSIFICATION_TYPE":"U","NORAD_CAT_ID":14129,"ELEMENT_SET_NO":999,"REV_AT_EPOCH":29440,"BSTAR":0,"MEAN_MOTION_DOT":5.8e-7,"MEAN_MOTION_DDOT":0},{"OBJECT_NAME":"UOSAT 2 (UO-11)","OBJECT_ID":"1984-021B","EPOCH":"2026-04-25T20:46:04.514592","MEAN_MOTION":14.90654729,"ECCENTRICITY":0.0007771,"INCLINATION":97.8018,"RA_OF_ASC_NODE":82.0428,"ARG_OF_PERICENTER":9.0173,"MEAN_ANOMALY":351.1183,"EPHEMERIS_TYPE":0,"CLASSIFICATION_TYPE":"U","NORAD_CAT_ID":14781,"ELEMENT_SET_NO":999,"REV_AT_EPOCH":24933,"BSTAR":0.00014934,"MEAN_MOTION_DOT":1.408e-5,"MEAN_MOTION_DDOT":0},{"OBJECT_NAME":"LUSAT (LO-19)","OBJECT_ID":"1990-005G","EPOCH":"2026-04-25T18:50:59.777376","MEAN_MOTION":14.34106019,"ECCENTRICITY":0.0011612,"INCLINATION":98.8886,"RA_OF_ASC_NODE":136.1385,"ARG_OF_PERICENTER":5.6944,"MEAN_ANOMALY":354.437,"EPHEMERIS_TYPE":0,"CLASSIFICATION_TYPE":"U","NORAD_CAT_ID":20442,"ELEMENT_SET_NO":999,"REV_AT_EPOCH":89488,"BSTAR":5.6077e-5,"MEAN_MOTION_DOT":1.1e-6,"MEAN_MOTION_DDOT":0},{"OBJECT_NAME":"EYESAT A (AO-27)","OBJECT_ID":"1993-061C","EPOCH":"2026-04-25T18:23:41.300736","MEAN_MOTION":14.30927492,"ECCENTRICITY":0.0007304,"INCLINATION":98.6906,"RA_OF_ASC_NODE":183.1918,"ARG_OF_PERICENTER":251.4174,"MEAN_ANOMALY":108.6215,"EPHEMERIS_TYPE":0,"CLASSIFICATION_TYPE":"U","NORAD_CAT_ID":22825,"ELEMENT_SET_NO":999,"REV_AT_EPOCH":69950,"BSTAR":4.3302e-5,"MEAN_MOTION_DOT":6.9e-7,"MEAN_MOTION_DDOT":0},{"OBJECT_NAME":"ITAMSAT (IO-26)","OBJECT_ID":"1993-061D","EPOCH":"2026-04-25T18:16:29.919360","MEAN_MOTION":14.31352931,"ECCENTRICITY":0.0007975,"INCLINATION":98.6853,"RA_OF_ASC_NODE":183.0989,"ARG_OF_PERICENTER":232.8581,"MEAN_ANOMALY":127.1874,"EPHEMERIS_TYPE":0,"CLASSIFICATION_TYPE":"U","NORAD_CAT_ID":22826,"ELEMENT_SET_NO":999,"REV_AT_EPOCH":69981,"BSTAR":4.5331e-5,"MEAN_MOTION_DOT":7.5e-7,"MEAN_MOTION_DDOT":0},{"OBJECT_NAME":"RADIO ROSTO (RS15)","OBJECT_ID":"1994-085A","EPOCH":"2026-04-25T18:56:46.219776","MEAN_MOTION":11.27583717,"ECCENTRICITY":0.0154446,"INCLINATION":64.8201,"RA_OF_ASC_NODE":27.9572,"ARG_OF_PERICENTER":13.406,"MEAN_ANOMALY":347.0898,"EPHEMERIS_TYPE":0,"CLASSIFICATION_TYPE":"U","NORAD_CAT_ID":23439,"ELEMENT_SET_NO":999,"REV_AT_EPOCH":28999,"BSTAR":-0.00011777,"MEAN_MOTION_DOT":-4.7e-7,"MEAN_MOTION_DDOT":0},{"OBJECT_NAME":"JAS-2 (FO-29)","OBJECT_ID":"1996-046B","EPOCH":"2026-04-25T14:16:02.822304","MEAN_MOTION":13.53271563,"ECCENTRICITY":0.0349018,"INCLINATION":98.5303,"RA_OF_ASC_NODE":331.6515,"ARG_OF_PERICENTER":232.8208,"MEAN_ANOMALY":124.0594,"EPHEMERIS_TYPE":0,"CLASSIFICATION_TYPE":"U","NORAD_CAT_ID":24278,"ELEMENT_SET_NO":999,"REV_AT_EPOCH":46605,"BSTAR":3.4217e-5,"MEAN_MOTION_DOT":-4.0e-8,"MEAN_MOTION_DDOT":0},{"OBJECT_NAME":"TECHSAT 1B (GO-32)","OBJECT_ID":"1998-043D","EPOCH":"2026-04-25T14:13:27.552000","MEAN_MOTION":14.24417549,"ECCENTRICITY":0.0001809,"INCLINATION":99.0061,"RA_OF_ASC_NODE":107.0293,"ARG_OF_PERICENTER":44.1616,"MEAN_ANOMALY":315.9706,"EPHEMERIS_TYPE":0,"CLASSIFICATION_TYPE":"U","NORAD_CAT_ID":25397,"ELEMENT_SET_NO":999,"REV_AT_EPOCH":44384,"BSTAR":4.3792e-5,"MEAN_MOTION_DOT":5.5e-7,"MEAN_MOTION_DDOT":0},{"OBJECT_NAME":"ISS (ZARYA)","OBJECT_ID":"1998-067A","EPOCH":"2026-04-25T14:51:50.575968","MEAN_MOTION":15.48952974,"ECCENTRICITY":0.0006949,"INCLINATION":51.632,"RA_OF_ASC_NODE":200.2872,"ARG_OF_PERICENTER":349.7097,"MEAN_ANOMALY":10.3748,"EPHEMERIS_TYPE":0,"CLASSIFICATION_TYPE":"U","NORAD_CAT_ID":25544,"ELEMENT_SET_NO":999,"REV_AT_EPOCH":56360,"BSTAR":0.00019457,"MEAN_MOTION_DOT":0.00010271,"MEAN_MOTION_DDOT":0},{"OBJECT_NAME":"PCSAT (NO-44)","OBJECT_ID":"2001-043C","EPOCH":"2026-04-25T20:16:25.169664","MEAN_MOTION":14.31935056,"ECCENTRICITY":0.0006513,"INCLINATION":67.0528,"RA_OF_ASC_NODE":19.6518,"ARG_OF_PERICENTER":263.9909,"MEAN_ANOMALY":96.0451,"EPHEMERIS_TYPE":0,"CLASSIFICATION_TYPE":"U","NORAD_CAT_ID":26931,"ELEMENT_SET_NO":999,"REV_AT_EPOCH":28295,"BSTAR":7.6957e-5,"MEAN_MOTION_DOT":1.23e-6,"MEAN_MOTION_DDOT":0},{"OBJECT_NAME":"SAUDISAT 1C (SO-50)","OBJECT_ID":"2002-058C","EPOCH":"2026-04-25T19:49:04.603008","MEAN_MOTION":14.82928015,"ECCENTRICITY":0.0075587,"INCLINATION":64.5516,"RA_OF_ASC_NODE":290.9753,"ARG_OF_PERICENTER":271.9918,"MEAN_ANOMALY":87.2533,"EPHEMERIS_TYPE":0,"CLASSIFICATION_TYPE":"U","NORAD_CAT_ID":27607,"ELEMENT_SET_NO":999,"REV_AT_EPOCH":25669,"BSTAR":0.00015231,"MEAN_MOTION_DOT":1.145e-5,"MEAN_MOTION_DDOT":0},{"OBJECT_NAME":"CUTE-1 (CO-55)","OBJECT_ID":"2003-031E","EPOCH":"2026-04-24T23:59:01.877856","MEAN_MOTION":14.24301171,"ECCENTRICITY":0.00092051,"INCLINATION":98.6757,"RA_OF_ASC_NODE":124.2245,"ARG_OF_PERICENTER":347.545,"MEAN_ANOMALY":12.55,"EPHEMERIS_TYPE":0,"CLASSIFICATION_TYPE":"U","NORAD_CAT_ID":27844,"ELEMENT_SET_NO":999,"REV_AT_EPOCH":18410,"BSTAR":0.00012495833,"MEAN_MOTION_DOT":2.45e-6,"MEAN_MOTION_DDOT":0},{"OBJECT_NAME":"CUBESAT XI-IV (CO-57)","OBJECT_ID":"2003-031J","EPOCH":"2026-04-25T10:52:35.529600","MEAN_MOTION":14.2359143,"ECCENTRICITY":0.0009461,"INCLINATION":98.6791,"RA_OF_ASC_NODE":124.4281,"ARG_OF_PERICENTER":4.9021,"MEAN_ANOMALY":355.2248,"EPHEMERIS_TYPE":0,"CLASSIFICATION_TYPE":"U","NORAD_CAT_ID":27848,"ELEMENT_SET_NO":999,"REV_AT_EPOCH":18387,"BSTAR":0.00012291,"MEAN_MOTION_DOT":2.36e-6,"MEAN_MOTION_DDOT":0},{"OBJECT_NAME":"MOZHAETS 4 (RS22)","OBJECT_ID":"2003-042A","EPOCH":"2026-04-25T12:26:21.824160","MEAN_MOTION":14.73368412,"ECCENTRICITY":0.0012542,"INCLINATION":98.3474,"RA_OF_ASC_NODE":298.3926,"ARG_OF_PERICENTER":77.1796,"MEAN_ANOMALY":7.0239,"EPHEMERIS_TYPE":0,"CLASSIFICATION_TYPE":"U","NORAD_CAT_ID":27939,"ELEMENT_SET_NO":999,"REV_AT_EPOCH":20779,"BSTAR":9.9623e-5,"MEAN_MOTION_DOT":5.92e-6,"MEAN_MOTION_DDOT":0},{"OBJECT_NAME":"CUBESAT XI-V","OBJECT_ID":"2005-043F","EPOCH":"2026-04-25T09:38:42.196992","MEAN_MOTION":14.72487588,"ECCENTRICITY":0.0014311,"INCLINATION":98.2923,"RA_OF_ASC_NODE":269.9383,"ARG_OF_PERICENTER":18.3896,"MEAN_ANOMALY":341.7825,"EPHEMERIS_TYPE":0,"CLASSIFICATION_TYPE":"U","NORAD_CAT_ID":28895,"ELEMENT_SET_NO":999,"REV_AT_EPOCH":9398,"BSTAR":0.00021784,"MEAN_MOTION_DOT":1.332e-5,"MEAN_MOTION_DDOT":0}]
